[{"OBJECT_NAME":"KUIPER-00132","OBJECT_ID":"2025-217B","EPOCH":"2026-03-09T02:22:40.024704","MEAN_MOTION":15.39752084,"ECCENTRICITY":0.00062861,"INCLINATION":51.8618,"RA_OF_ASC_NODE":6.3682,"ARG_OF_PERICENTER":331.624,"MEAN_ANOMALY":28.4404,"EPHEMERIS_TYPE":0,"CLASSIFICATION_TYPE":"U","NORAD_CAT_ID":65763,"ELEMENT_SET_NO":999,"REV_AT_EPOCH":2533,"BSTAR":0.00094024586,"MEAN_MOTION_DOT":0.00037616,"MEAN_MOTION_DDOT":0},{"OBJECT_NAME":"STARLINK-36757","OBJECT_ID":"2026-026H","EPOCH":"2026-03-09T22:00:01.999584","MEAN_MOTION":15.47745179,"ECCENTRICITY":0.0002088,"INCLINATION":97.2845,"RA_OF_ASC_NODE":123.4678,"ARG_OF_PERICENTER":87.7955,"MEAN_ANOMALY":48.2643,"EPHEMERIS_TYPE":0,"CLASSIFICATION_TYPE":"U","NORAD_CAT_ID":67728,"ELEMENT_SET_NO":999,"REV_AT_EPOCH":535,"BSTAR":-0.044342715,"MEAN_MOTION_DOT":-0.02044206,"MEAN_MOTION_DDOT":0}]
